[{"OBJECT_NAME":"STARLINK-6074","OBJECT_ID":"2023-065BC","EPOCH":"2026-03-09T22:00:01.999584","MEAN_MOTION":15.12031163,"ECCENTRICITY":0.00013808,"INCLINATION":43.0003,"RA_OF_ASC_NODE":221.4509,"ARG_OF_PERICENTER":288.0031,"MEAN_ANOMALY":182.3941,"EPHEMERIS_TYPE":0,"CLASSIFICATION_TYPE":"U","NORAD_CAT_ID":56553,"ELEMENT_SET_NO":999,"REV_AT_EPOCH":573,"BSTAR":0.072218163,"MEAN_MOTION_DOT":0.01376494,"MEAN_MOTION_DDOT":0},{"OBJECT_NAME":"FENGYUN 1C DEB","OBJECT_ID":"1999-025BCE","EPOCH":"2026-03-09T20:27:54.391104","MEAN_MOTION":15.38307136,"ECCENTRICITY":0.00917966,"INCLINATION":98.5506,"RA_OF_ASC_NODE":34.4945,"ARG_OF_PERICENTER":39.9911,"MEAN_ANOMALY":320.8043,"EPHEMERIS_TYPE":0,"CLASSIFICATION_TYPE":"U","NORAD_CAT_ID":30988,"ELEMENT_SET_NO":999,"REV_AT_EPOCH":875,"BSTAR":0.0023570074,"MEAN_MOTION_DOT":0.00103953,"MEAN_MOTION_DDOT":0}]
